20.01.16 00:00:03 | SARS10 ERZW 192000
METAR UDYZ 192000Z 04002MPS 9999 FEW046 03/00 Q1011 R09/0///70 NOSIG=
20.01.16 00:30:03 | SARS10 ERZW 192030
METAR UDYZ 192030Z VRB01MPS 9999 FEW046 04/00 Q1011 R09/0///70 NOSIG=
20.01.16 01:00:03 | SARS10 ERZW 192100
METAR UDYZ 192100Z 04002MPS 9999 FEW046 03/M00 Q1011 R09/0///70 NOSIG=
20.01.16 01:30:17 | SARS10 ERZW 192130
METAR UDYZ 192130Z 12002MPS 9999 FEW046 05/M01 Q1011 R09/0///70 NOSIG=
20.01.16 02:00:03 | SARS10 ERZW 192200
METAR UDYZ 192200Z VRB01MPS 9999 SCT040 05/M00 Q1011 R09/0///70 NOSIG=
20.01.16 02:30:03 | SARS10 ERZW 192230
METAR UDYZ 192230Z 26004MPS 9999 SCT040CB 04/00 Q1012 R09/0///70 TEMPO SHRA=
20.01.16 02:40:48 | SARS10 ERZW 192240
SPECI UDYZ 192240Z 25005MPS 6000 -SHRA BKN019CB 03/01 Q1013 R09/0///70 TEMPO SHRA=
20.01.16 03:00:03 | SARS10 ERZW 192300
METAR UDYZ 192300Z 24002MPS 6000 -SHRA BKN025CB 03/01 Q1013 R09/290060 TEMPO SHRA=
20.01.16 03:14:17 | SARS10 ERZW 192314
SPECI UDYZ 192314Z VRB01MPS 9999 BKN025CB 03/01 Q1013 R09/290060 TEMPO SHRA=
20.01.16 03:30:03 | SARS10 ERZW 192330
METAR UDYZ 192330Z VRB01MPS 9999 BKN025CB 03/01 Q1013 R09/290060 NOSIG=
20.01.16 04:00:03 | SARS10 ERZW 200000
METAR UDYZ 200000Z 02002MPS 9999 SCT030CB 02/01 Q1014 R09/290060 NOSIG=
20.01.16 04:30:03 | SARS10 ERZW 200030
METAR UDYZ 200030Z VRB01MPS 9999 SCT036CB 02/00 Q1014 R09/290060 NOSIG=
20.01.16 05:00:03 | SARS10 ERZW 200100
METAR UDYZ 200100Z VRB01MPS 9999 BKN036CB 02/01 Q1014 R09/290060 NOSIG=
20.01.16 05:30:03 | SARS10 ERZW 200130
METAR UDYZ 200130Z VRB01MPS 9999 BKN036 02/01 Q1014 R09/290060 NOSIG=
20.01.16 06:00:03 | SARS10 ERZW 200200
METAR UDYZ 200200Z 00000MPS 9999 BKN036CB 02/01 Q1014 R09/290060 NOSIG=
20.01.16 06:30:03 | SARS10 ERZW 200230
METAR UDYZ 200230Z 26002MPS 9999 BKN036CB 01/00 Q1015 R09/290060 NOSIG=
20.01.16 07:00:03 | SARS10 ERZW 200300
METAR UDYZ 200300Z 06002MPS 9999 SCT043 02/01 Q1015 R09/290060 NOSIG=
20.01.16 07:30:03 | SARS10 ERZW 200330
METAR UDYZ 200330Z VRB01MPS 9999 SCT043 02/00 Q1016 R09/290060 NOSIG=
20.01.16 08:00:03 | SARS10 ERZW 200400
METAR UDYZ 200400Z 00000MPS 9999 FEW046 01/M00 Q1016 R09/290060 NOSIG=
20.01.16 08:30:03 | SARS10 ERZW 200430
METAR UDYZ 200430Z 03002MPS 9999 FEW046 01/M00 Q1017 R09/290060 NOSIG=
20.01.16 09:00:03 | SARS10 ERZW 200500
METAR UDYZ 200500Z VRB02MPS 9999 FEW046 01/M00 Q1017 R09/290060 NOSIG=
20.01.16 09:30:03 | SARS10 ERZW 200530
METAR UDYZ 200530Z 13002MPS 9999 FEW046 02/00 Q1018 R09/290060 NOSIG=
20.01.16 10:00:03 | SARS10 ERZW 200600
METAR UDYZ 200600Z 00000MPS 9999 FEW046 03/00 Q1019 R09/290060 TEMPO -RA=
20.01.16 10:30:03 | SARS10 ERZW 200630
METAR UDYZ 200630Z VRB01MPS 9999 FEW046 04/M00 Q1019 R09/290060 TEMPO -RA=
20.01.16 11:00:03 | SARS10 ERZW 200700
METAR UDYZ 200700Z 10002MPS 9999 FEW046 04/M00 Q1019 R09/290060 TEMPO -RA=
20.01.16 11:30:03 | SARS10 ERZW 200730
METAR UDYZ 200730Z VRB01MPS 9999 FEW046 06/M03 Q1019 R09/290060 TEMPO -RA=
20.01.16 12:00:03 | SARS10 ERZW 200800
METAR UDYZ 200800Z 25004MPS 9999 FEW046 06/M04 Q1019 R09/290060 NOSIG=
20.01.16 12:30:03 | SARS10 ERZW 200830
METAR UDYZ 200830Z 26004MPS 9999 FEW046 06/M06 Q1019 R09/190065 NOSIG=
20.01.16 13:00:03 | SARS10 ERZW 200900
METAR UDYZ 200900Z 27003MPS 9999 FEW046 06/M05 Q1019 R09/190065 NOSIG=
20.01.16 13:30:03 | SARS10 ERZW 200930
METAR UDYZ 200930Z 27003MPS 9999 FEW046 05/M05 Q1020 R09/190065 NOSIG=
20.01.16 14:00:03 | SARS10 ERZW 201000
METAR UDYZ 201000Z 29002MPS 9999 FEW046 06/M05 Q1019 R09/190065 NOSIG=
20.01.16 14:30:03 | SARS10 ERZW 201030
METAR UDYZ 201030Z 27002MPS 9999 FEW046 06/M06 Q1019 R09/190065 NOSIG=
20.01.16 15:00:03 | SARS10 ERZW 201100
METAR UDYZ 201100Z 25002MPS 9999 FEW046 05/M05 Q1020 R09/000070 NOSIG=
20.01.16 15:30:03 | SARS10 ERZW 201130
METAR UDYZ 201130Z 27002MPS 9999 FEW046 06/M06 Q1020 R09/000070 NOSIG=
20.01.16 16:00:17 | SARS10 ERZW 201200
METAR UDYZ 201200Z VRB01MPS 9999 FEW046 06/M06 Q1020 R09/000070 NOSIG=
20.01.16 16:30:03 | SARS10 ERZW 201230
METAR UDYZ 201230Z VRB01MPS 9999 FEW046 07/M08 Q1020 R09/000070 NOSIG=
20.01.16 17:00:04 | SARS10 ERZW 201300
METAR UDYZ 201300Z VRB01MPS 9999 FEW046 06/M08 Q1021 R09/000070 NOSIG=
20.01.16 17:30:03 | SARS10 ERZW 201330
METAR UDYZ 201330Z VRB01MPS 9999 FEW046 05/M06 Q1021 R09/000070 NOSIG=
20.01.16 18:00:03 | SARS10 ERZW 201400
METAR UDYZ 201400Z VRB01MPS 9999 FEW046 04/M04 Q1021 R09/000070 NOSIG=
20.01.16 18:30:04 | SARS10 ERZW 201430
METAR UDYZ 201430Z 00000MPS 9999 FEW046 04/M05 Q1022 R09/000070 NOSIG=
20.01.16 19:00:34 | SARS10 ERZW 201500
METAR UDYZ 201500Z VRB01MPS 9999 FEW046 03/M04 Q1022 R09/000070 NOSIG=
20.01.16 19:30:04 | SARS10 ERZW 201530
METAR UDYZ 201530Z VRB01MPS 9999 FEW046 03/M02 Q1022 R09/000070 NOSIG=
20.01.16 20:00:04 | SARS10 ERZW 201600
METAR UDYZ 201600Z VRB01MPS 9999 FEW046 03/M03 Q1023 R09/000070 NOSIG=
20.01.16 20:30:04 | SARS10 ERZW 201630
METAR UDYZ 201630Z 00000MPS 9999 FEW046 02/M03 Q1023 R09/000070 NOSIG=
20.01.16 21:00:04 | SARS10 ERZW 201700
METAR UDYZ 201700Z 05002MPS 9999 FEW046 01/M02 Q1023 R09/000070 NOSIG=
20.01.16 21:30:04 | SARS10 ERZW 201730
METAR UDYZ 201730Z VRB01MPS 9999 FEW046 02/M02 Q1023 R09/000070 NOSIG=
20.01.16 22:00:04 | SARS10 ERZW 201800
METAR UDYZ 201800Z VRB01MPS 9999 NSC 01/M02 Q1023 R09/000070 NOSIG=
20.01.16 22:30:04 | SARS10 ERZW 201830
METAR UDYZ 201830Z VRB01MPS 9999 NSC 01/M02 Q1023 R09/000070 NOSIG=
20.01.16 23:00:04 | SARS10 ERZW 201900
METAR UDYZ 201900Z VRB01MPS 9999 NSC 01/M02 Q1023 R09/000070 NOSIG=
20.01.16 23:30:04 | SARS10 ERZW 201930
METAR UDYZ 201930Z 00000MPS 9999 NSC 00/M02 Q1023 R09/000070 NOSIG=
20.01.20 00:00:37 | SARS10 ERZW 200000
METAR UDYZ 200000Z 00000KT 2300 BR BKN024 M01/M02 Q1025 R09/190065 NOSIG=
20.01.20 00:30:37 | SARS10 ERZW 200030
METAR UDYZ 200030Z 00000KT 2300 BR BKN024 M01/M02 Q1025 R09/190065 NOSIG=
20.01.20 01:00:37 | SARS10 ERZW 200100
METAR UDYZ 200100Z 00000KT 2300 BR BKN024 M01/M02 Q1025 R09/190065 NOSIG=
20.01.20 01:30:37 | SARS10 ERZW 200130
METAR UDYZ 200130Z 21002KT 2300 BR BKN024 M01/M03 Q1025 R09/190065 NOSIG=
20.01.20 02:00:37 | SARS10 ERZW 200200
METAR UDYZ 200200Z 26002KT 2300 BR BKN024 M02/M03 Q1025 R09/190065 NOSIG=
20.01.20 02:30:37 | SARS10 ERZW 200230
METAR UDYZ 200230Z 00000KT 2300 BR BKN024 M02/M03 Q1025 R09/190065 NOSIG=
20.01.20 03:00:37 | SARS10 ERZW 200300
METAR UDYZ 200300Z 00000KT 2300 BR BKN024 M02/M03 Q1025 R09/190065 NOSIG=
20.01.20 03:30:38 | SARS10 ERZW 200330
METAR UDYZ 200330Z 32001KT 2300 BR BKN030 M02/M03 Q1025 R09/190065 NOSIG=
20.01.20 04:00:40 | SARS10 ERZW 200400
METAR UDYZ 200400Z 33001KT 2300 BR BKN040 M01/M03 Q1025 R09/190065 NOSIG=
20.01.20 04:30:38 | SARS10 ERZW 200430
METAR UDYZ 200430Z 00000KT 2300 BR BKN043 M01/M03 Q1025 R09/190065 NOSIG=
20.01.20 05:00:38 | SARS10 ERZW 200500
METAR UDYZ 200500Z 07001KT 2300 BR BKN043 M01/M02 Q1026 R09/190065 NOSIG=
20.01.20 05:30:38 | SARS10 ERZW 200530
METAR UDYZ 200530Z 00000KT 2000 R09/2000N BR BKN043 M01/M02 Q1026 R09/190065 NOSIG=
20.01.20 06:00:38 | SARS10 ERZW 200600
METAR UDYZ 200600Z 00000KT 2000 R09/2000N BR BKN043 M01/M02 Q1026 R09/190065 NOSIG=
20.01.20 06:30:38 | SARS10 ERZW 200630
METAR UDYZ 200630Z 00000KT 2000 R09/2000N BR BKN043 M00/M02 Q1026 R09/190065 NOSIG=
20.01.20 07:00:38 | SARS10 ERZW 200700
METAR UDYZ 200700Z 00000KT 2000 R09/2000N BR BKN043 00/M02 Q1026 R09/190065 NOSIG=
20.01.20 07:30:38 | SARS10 ERZW 200730
METAR UDYZ 200730Z 00000KT 2000 R09/2000N BR BKN043 00/M02 Q1026 R09/190065 NOSIG=
20.01.20 08:00:38 | SARS10 ERZW 200800
METAR UDYZ 200800Z 00000KT 2300 BR BKN023 01/M02 Q1026 R09/190065 NOSIG=
