18.01.16 00:00:00 | SARS10 ERZW 172000
METAR UDYZ 172000Z 05002MPS 6000 NSC M01/M04 Q1020 R09/0///70 NOSIG=
18.01.16 00:30:00 | SARS10 ERZW 172030
METAR UDYZ 172030Z VRB01MPS 6000 NSC M01/M05 Q1020 R09/0///70 NOSIG=
18.01.16 01:00:00 | SARS10 ERZW 172100
METAR UDYZ 172100Z 00000MPS 6000 NSC M01/M04 Q1020 R09/0///70 NOSIG=
18.01.16 01:30:00 | SARS10 ERZW 172130
METAR UDYZ 172130Z 00000MPS 3500 BR NSC M02/M05 Q1020 R09/0///70 NOSIG=
18.01.16 02:00:00 | SARS10 ERZW 172200
METAR UDYZ 172200Z VRB01MPS 2300 BR NSC M03/M05 Q1019 R09/0///70 NOSIG=
18.01.16 02:30:00 | SARS10 ERZW 172230
METAR UDYZ 172230Z VRB01MPS 2300 BR NSC M02/M04 Q1019 R09/0///70 NOSIG=
18.01.16 09:00:01 | SARS10 ERZW 180500
METAR UDYZ 180500Z 00000MPS 3500 BR NSC M04/M06 Q1018 R09/0///70 NOSIG=
18.01.16 09:30:00 | SARS10 ERZW 180530
METAR UDYZ 180530Z 00000MPS 3500 BR NSC M03/M05 Q1019 R09/0///70 NOSIG=
18.01.16 10:00:01 | SARS10 ERZW 180600
METAR UDYZ 180600Z 00000MPS 2300 BR NSC M01/M04 Q1019 R09/0///70 NOSIG=
18.01.16 10:30:01 | SARS10 ERZW 180630
METAR UDYZ 180630Z 00000MPS 2300 BR NSC M01/M04 Q1019 R09/0///70 NOSIG=
18.01.16 11:00:01 | SARS10 ERZW 180700
METAR UDYZ 180700Z VRB01MPS 2300 BR NSC M00/M03 Q1019 R09/0///70 NOSIG=
18.01.16 11:30:01 | SARS10 ERZW 180730
METAR UDYZ 180730Z VRB01MPS 2300 BR NSC 00/M03 Q1018 R09/0///70 NOSIG=
18.01.16 12:00:01 | SARS10 ERZW 180800
METAR UDYZ 180800Z VRB01MPS 2300 BR NSC 00/M02 Q1018 R09/0///70 NOSIG=
18.01.16 12:30:01 | SARS10 ERZW 180830
METAR UDYZ 180830Z VRB01MPS 2300 BR NSC 01/M02 Q1017 R09/0///70 NOSIG=
18.01.16 13:00:01 | SARS10 ERZW 180900
METAR UDYZ 180900Z VRB01MPS 2300 BR NSC 02/M02 Q1016 R09/0///70 NOSIG=
18.01.16 13:30:01 | SARS10 ERZW 180930
METAR UDYZ 180930Z VRB01MPS 2300 BR NSC 03/M02 Q1015 R09/0///70 NOSIG=
18.01.16 14:00:01 | SARS10 ERZW 181000
METAR UDYZ 181000Z VRB01MPS 3500 BR NSC 03/M03 Q1014 R09/0///70 NOSIG=
18.01.16 14:30:01 | SARS10 ERZW 181030
METAR UDYZ 181030Z 18002MPS 3500 BR NSC 03/M02 Q1014 R09/0///70 NOSIG=
18.01.16 15:00:01 | SARS10 ERZW 181100
METAR UDYZ 181100Z VRB01MPS 6000 FEW046 03/M03 Q1013 R09/0///70 NOSIG=
18.01.16 15:30:01 | SARS10 ERZW 181130
METAR UDYZ 181130Z VRB01MPS 6000 FEW046 03/M01 Q1013 R09/0///70 NOSIG=
18.01.16 16:00:01 | SARS10 ERZW 181200
METAR UDYZ 181200Z 25002MPS 6000 FEW046 03/M02 Q1014 R09/0///70 NOSIG=
18.01.16 16:30:01 | SARS10 ERZW 181230
METAR UDYZ 181230Z 00000MPS 6000 FEW046 03/M03 Q1012 R09/0///70 NOSIG=
18.01.16 17:00:01 | SARS10 ERZW 181300
METAR UDYZ 181300Z 00000MPS 6000 FEW046 03/M02 Q1012 R09/0///70 NOSIG=
18.01.16 17:30:01 | SARS10 ERZW 181330
METAR UDYZ 181330Z VRB01MPS 6000 FEW046 03/M02 Q1012 R09/0///70 NOSIG=
18.01.16 18:00:01 | SARS10 ERZW 181400
METAR UDYZ 181400Z VRB01MPS 6000 FEW046 02/M01 Q1012 R09/0///70 NOSIG=
18.01.16 18:30:01 | SARS10 ERZW 181430
METAR UDYZ 181430Z 00000MPS 6000 SCT040CB 02/M01 Q1012 R09/0///70 NOSIG=
18.01.16 19:00:01 | SARS10 ERZW 181500
METAR UDYZ 181500Z VRB01MPS 3500 BR SCT040CB 02/M01 Q1011 R09/0///70 NOSIG=
18.01.16 19:30:01 | SARS10 ERZW 181530
METAR UDYZ 181530Z VRB01MPS 3500 BR SCT040CB 02/M01 Q1011 R09/0///70 NOSIG=
18.01.16 20:00:01 | SARS10 ERZW 181600
METAR UDYZ 181600Z VRB01MPS 3500 BR SCT040CB 02/M01 Q1011 R09/0///70 NOSIG=
18.01.16 20:30:01 | SARS10 ERZW 181630
METAR UDYZ 181630Z VRB01MPS 3500 BR SCT040CB 01/M01 Q1011 R09/0///70 NOSIG=
18.01.16 20:43:57 | SARS10 ERZW 181643
SPECI UDYZ 181643Z VRB01MPS 2300 BR SCT040CB 01/M01 Q1011 R09/0///70 NOSIG=
18.01.16 21:00:01 | SARS10 ERZW 181700
METAR UDYZ 181700Z VRB01MPS 2300 BR SCT040CB 01/M01 Q1010 R09/0///70 NOSIG=
18.01.16 21:30:01 | SARS10 ERZW 181730
METAR UDYZ 181730Z VRB01MPS 2300 BR SCT040CB 01/M01 Q1010 R09/0///70 NOSIG=
18.01.16 22:00:01 | SARS10 ERZW 181800
METAR UDYZ 181800Z VRB01MPS 2300 BR SCT040CB 01/M01 Q1010 R09/0///70 NOSIG=
18.01.16 22:30:01 | SARS10 ERZW 181830
METAR UDYZ 181830Z VRB01MPS 2300 BR SCT040CB 01/M01 Q1009 R09/0///70 NOSIG=
18.01.16 23:00:01 | SARS10 ERZW 181900
METAR UDYZ 181900Z 00000MPS 2300 BR FEW046 00/M02 Q1009 R09/0///70 NOSIG=
18.01.16 23:30:01 | SARS10 ERZW 181930
METAR UDYZ 181930Z 00000MPS 2300 BR FEW046 M00/M02 Q1009 R09/0///70 NOSIG=
18.01.20 00:00:36 | SARS10 ERZW 180000
METAR UDYZ 180000Z 28001KT 0050 R09/0200N FZFG VV001 M10/M11 Q1022 R09/090070 NOSIG=
18.01.20 00:30:39 | SARS10 ERZW 180030
METAR UDYZ 180030Z 02001KT 0050 R09/0250N FZFG VV001 M10/M11 Q1022 R09/090070 NOSIG=
18.01.20 01:00:36 | SARS10 ERZW 180100
METAR UDYZ 180100Z 02002KT 0050 R09/0400U FZFG VV001 M10/M12 Q1021 R09/090070 NOSIG=
18.01.20 01:30:36 | SARS10 ERZW 180130
METAR UDYZ 180130Z 00000KT 0300 0100N R09/0900D FZFG VV002 M09/M11 Q1021 R09/090070 NOSIG=
18.01.20 02:00:36 | SARS10 ERZW 180200
METAR UDYZ 180200Z VRB01KT 0150 0050E R09/0500D FZFG VV001 M11/M13 Q1021 R09/090070 NOSIG=
18.01.20 02:30:36 | SARS10 ERZW 180230
METAR UDYZ 180230Z 00000KT 0050 R09/0325N FZFG VV001 M11/M13 Q1021 R09/090070 NOSIG=
18.01.20 03:00:36 | SARS10 ERZW 180300
METAR UDYZ 180300Z 01001KT 0100 0050E R09/1700U FZFG VV002 M12/M14 Q1021 R09/090070 NOSIG=
18.01.20 03:22:54 | SARS10 ERZW 180322
SPECI UDYZ 180322Z 02001KT 0700 0650W R09/1700N FZFG VV003 M12/M14 Q1021 R09/090070 NOSIG=
18.01.20 03:30:36 | SARS10 ERZW 180330
METAR UDYZ 180330Z 01001KT 1200 0900W R09/2000U FZFG NSC M12/M14 Q1021 R09/090070 NOSIG=
18.01.20 03:57:05 | SARS10 ERZW 180356
SPECI UDYZ 180356Z 00000KT 2000 0350W R09/0700D FZFG NSC M12/M14 Q1021 R09/090070 TEMPO 0200 FZFG VV001=
18.01.20 04:00:37 | SARS10 ERZW 180400
METAR UDYZ 180400Z 00000KT 1600 0300W R09/0600D FZFG NSC M12/M14 Q1021 R09/090070 TEMPO 0200 FZFG VV001=
18.01.20 04:30:36 | SARS10 ERZW 180430
METAR UDYZ 180430Z 00000KT 1200 0050N R09/1200U FZFG NSC M13/M15 Q1022 R09/090070 NOSIG=
18.01.20 05:00:36 | SARS10 ERZW 180500
METAR UDYZ 180500Z 00000KT 0150 0050N R09/2000U FZFG NSC M13/M14 Q1022 R09/090070 NOSIG=
18.01.20 05:30:36 | SARS10 ERZW 180530
METAR UDYZ 180530Z VRB01KT 0500 0100W R09/0175N FZFG NSC M12/M14 Q1022 R09/090070 NOSIG=
18.01.20 06:00:36 | SARS10 ERZW 180600
METAR UDYZ 180600Z 06001KT 2300 BR NSC M09/M11 Q1022 R09/090070 NOSIG=
18.01.20 06:30:36 | SARS10 ERZW 180630
METAR UDYZ 180630Z 10001KT 3000 BR NSC M09/M10 Q1022 R09/090070 NOSIG=
18.01.20 07:00:36 | SARS10 ERZW 180700
METAR UDYZ 180700Z 00000KT 3000 BR NSC M07/M09 Q1022 R09/090070 NOSIG=
18.01.20 07:30:36 | SARS10 ERZW 180730
METAR UDYZ 180730Z 23001KT 3000 BR NSC M07/M08 Q1022 R09/090070 NOSIG=
18.01.20 08:00:36 | SARS10 ERZW 180800
METAR UDYZ 180800Z 23001KT 3000 BR NSC M06/M07 Q1022 R09/090070 NOSIG=
18.01.20 08:30:36 | SARS10 ERZW 180830
METAR UDYZ 180830Z 20001KT 3000 BR NSC M05/M06 Q1021 R09/090070 NOSIG=
18.01.20 09:00:36 | SARS10 ERZW 180900
METAR UDYZ 180900Z 00000KT 3000 BR NSC M03/M06 Q1021 R09/090070 NOSIG=
18.01.20 09:30:36 | SARS10 ERZW 180930
METAR UDYZ 180930Z 00000KT 3000 BR NSC M01/M06 Q1020 R09/090070 NOSIG=
18.01.20 10:00:36 | SARS10 ERZW 181000
METAR UDYZ 181000Z 15001KT 3000 BR NSC M01/M06 Q1020 R09/090070 NOSIG=
