10.02.16 00:01:07 | SARS10 ERZW 092000
METAR UDYZ 092000Z 00000MPS 9999 OVC046 M00/M02 Q1027 R09/0///70 NOSIG=
10.02.16 00:31:07 | SARS10 ERZW 092030
METAR UDYZ 092030Z 00000MPS 9999 OVC046 M00/M02 Q1028 R09/0///70 NOSIG=
10.02.16 01:01:07 | SARS10 ERZW 092100
METAR UDYZ 092100Z VRB01MPS 9999 SCT046 M00/M02 Q1027 R09/0///70 NOSIG=
10.02.16 01:31:07 | SARS10 ERZW 092130
METAR UDYZ 092130Z 00000MPS 9999 SCT046 M01/M02 Q1027 R09/0///70 NOSIG=
10.02.16 02:01:07 | SARS10 ERZW 092200
METAR UDYZ 092200Z 00000MPS 9999 SCT046 M01/M02 Q1027 R09/0///70 NOSIG=
10.02.16 02:31:07 | SARS10 ERZW 092230
METAR UDYZ 092230Z 00000MPS 6000 SCT046 M01/M02 Q1027 R09/0///70 NOSIG=
10.02.16 03:01:07 | SARS10 ERZW 092300
METAR UDYZ 092300Z VRB01MPS 6000 SCT046 M01/M02 Q1027 R09/0///70 NOSIG=
10.02.16 03:31:07 | SARS10 ERZW 092330
METAR UDYZ 092330Z 00000MPS 6000 SCT046 M01/M02 Q1027 R09/0///70 NOSIG=
10.02.16 04:01:07 | SARS10 ERZW 100000
METAR UDYZ 100000Z 00000MPS 6000 SCT046 M01/M02 Q1026 R09/0///70 NOSIG=
10.02.16 04:31:07 | SARS10 ERZW 100030
METAR UDYZ 100030Z 00000MPS 6000 SCT046 M01/M02 Q1026 R09/0///70 NOSIG=
10.02.16 05:01:07 | SARS10 ERZW 100100
METAR UDYZ 100100Z 00000MPS 6000 SCT046 M01/M02 Q1026 R09/0///70 NOSIG=
10.02.16 05:31:07 | SARS10 ERZW 100130
METAR UDYZ 100130Z 00000MPS 6000 SCT046 M01/M02 Q1026 R09/0///70 NOSIG=
10.02.16 06:01:07 | SARS10 ERZW 100200
METAR UDYZ 100200Z 00000MPS 6000 SCT046 M01/M02 Q1026 R09/0///70 NOSIG=
10.02.16 06:31:07 | SARS10 ERZW 100230
METAR UDYZ 100230Z 00000MPS 6000 SCT046 M01/M02 Q1026 R09/0///70 NOSIG=
10.02.16 07:01:07 | SARS10 ERZW 100300
METAR UDYZ 100300Z 00000MPS 6000 SCT046 M01/M02 Q1026 R09/0///70 NOSIG=
10.02.16 07:31:07 | SARS10 ERZW 100330
METAR UDYZ 100330Z 00000MPS 6000 SCT046 M01/M02 Q1026 R09/0///70 NOSIG=
10.02.16 08:01:07 | SARS10 ERZW 100400
METAR UDYZ 100400Z 00000MPS 6000 SCT046 M01/M03 Q1026 R09/0///70 NOSIG=
10.02.16 08:31:07 | SARS10 ERZW 100430
METAR UDYZ 100430Z 00000MPS 6000 FEW046 M01/M02 Q1026 R09/0///70 NOSIG=
10.02.16 09:01:07 | SARS10 ERZW 100500
METAR UDYZ 100500Z 00000MPS 6000 FEW046 M01/M02 Q1026 R09/0///70 NOSIG=
10.02.16 09:31:07 | SARS10 ERZW 100530
METAR UDYZ 100530Z 00000MPS 3500 BR SCT046 M00/M02 Q1027 R09/0///70 NOSIG=
10.02.16 10:01:08 | SARS10 ERZW 100600
METAR UDYZ 100600Z 00000MPS 6000 FEW046 01/M02 Q1027 R09/0///70 NOSIG=
10.02.16 10:31:07 | SARS10 ERZW 100630
METAR UDYZ 100630Z VRB01MPS 6000 FEW046 02/M02 Q1027 R09/0///70 NOSIG=
10.02.16 11:01:07 | SARS10 ERZW 100700
METAR UDYZ 100700Z VRB01MPS 6000 FEW046 02/M02 Q1027 R09/0///70 NOSIG=
10.02.16 11:31:07 | SARS10 ERZW 100730
METAR UDYZ 100730Z VRB01MPS 9999 FEW046 02/M02 Q1027 R09/0///70 NOSIG=
10.02.16 12:01:08 | SARS10 ERZW 100800
METAR UDYZ 100800Z 10002MPS 040V140 9999 SCT020 03/M02 Q1026 R09/0///70 NOSIG=
10.02.16 12:31:08 | SARS10 ERZW 100830
METAR UDYZ 100830Z 16002MPS 120V200 9999 SCT020 03/M03 Q1026 R09/0///70 NOSIG=
10.02.16 13:01:08 | SARS10 ERZW 100900
METAR UDYZ 100900Z 14002MPS 100V200 9999 BKN023 03/M03 Q1026 R09/0///70 NOSIG=
10.02.16 13:31:08 | SARS10 ERZW 100930
METAR UDYZ 100930Z 15002MPS 100V200 9999 BKN026 03/M03 Q1026 R09/0///70 NOSIG=
10.02.16 14:01:08 | SARS10 ERZW 101000
METAR UDYZ 101000Z 14002MPS 9999 BKN030 03/M03 Q1025 R09/0///70 NOSIG=
10.02.16 14:31:07 | SARS10 ERZW 101030
METAR UDYZ 101030Z 11002MPS 9999 BKN040 04/M03 Q1025 R09/0///70 NOSIG=
10.02.16 15:01:08 | SARS10 ERZW 101100
METAR UDYZ 101100Z 13002MPS 9999 BKN040 04/M03 Q1024 R09/0///70 NOSIG=
10.02.16 15:31:07 | SARS10 ERZW 101130
METAR UDYZ 101130Z VRB01MPS 9999 BKN040 04/M03 Q1024 R09/0///70 NOSIG=
10.02.16 16:01:08 | SARS10 ERZW 101200
METAR UDYZ 101200Z VRB01MPS 9999 BKN046 04/M03 Q1024 R09/0///70 NOSIG=
10.02.16 16:31:08 | SARS10 ERZW 101230
METAR UDYZ 101230Z VRB01MPS 9999 BKN046 04/M04 Q1024 R09/0///70 NOSIG=
10.02.16 17:01:08 | SARS10 ERZW 101300
METAR UDYZ 101300Z VRB01MPS 9999 BKN046 03/M04 Q1024 R09/0///70 NOSIG=
10.02.16 17:31:08 | SARS10 ERZW 101330
METAR UDYZ 101330Z VRB01MPS 9999 BKN046 03/M03 Q1024 R09/0///70 NOSIG=
10.02.16 18:01:08 | SARS10 ERZW 101400
METAR UDYZ 101400Z VRB01MPS 9999 BKN046 03/M03 Q1024 R09/0///70 NOSIG=
10.02.16 18:31:08 | SARS10 ERZW 101430
METAR UDYZ 101430Z VRB01MPS 9999 BKN046 02/M03 Q1024 R09/0///70 NOSIG=
10.02.16 19:01:08 | SARS10 ERZW 101500
METAR UDYZ 101500Z 00000MPS 9999 BKN046 02/M03 Q1024 R09/0///70 NOSIG=
10.02.16 19:31:08 | SARS10 ERZW 101530
METAR UDYZ 101530Z 00000MPS 9999 BKN046 02/M03 Q1024 R09/0///70 NOSIG=
10.02.16 20:01:08 | SARS10 ERZW 101600
METAR UDYZ 101600Z 00000MPS 9999 BKN036 02/M02 Q1024 R09/0///70 NOSIG=
10.02.16 20:31:08 | SARS10 ERZW 101630
METAR UDYZ 101630Z VRB01MPS 9999 BKN036 01/M02 Q1024 R09/0///70 NOSIG=
10.02.16 21:01:08 | SARS10 ERZW 101700
METAR UDYZ 101700Z VRB01MPS 9999 BKN036 01/M02 Q1024 R09/0///70 NOSIG=
10.02.16 21:31:08 | SARS10 ERZW 101730
METAR UDYZ 101730Z VRB01MPS 9999 BKN036 00/M03 Q1023 R09/0///70 NOSIG=
10.02.16 22:01:08 | SARS10 ERZW 101800
METAR UDYZ 101800Z VRB01MPS 9999 SCT046 01/M02 Q1023 R09/0///70 NOSIG=
10.02.16 22:31:08 | SARS10 ERZW 101830
METAR UDYZ 101830Z VRB01MPS 6000 SCT046 00/M02 Q1023 R09/0///70 NOSIG=
10.02.16 23:01:08 | SARS10 ERZW 101900
METAR UDYZ 101900Z VRB01MPS 6000 BKN046 M00/M02 Q1023 R09/0///70 NOSIG=
10.02.16 23:31:08 | SARS10 ERZW 101930
METAR UDYZ 101930Z VRB01MPS 6000 BKN046 00/M01 Q1023 R09/0///70 NOSIG=
10.02.19 00:01:00 | SARS10 ERZW 100000
METAR UDYZ 100000Z 13001KT 2300 BR SCT030 03/01 Q1017 R09/010070 NOSIG=
10.02.19 00:31:00 | SARS10 ERZW 100030
METAR UDYZ 100030Z 08002KT 1500 1400N R09/P2000D BR SCT043 02/01 Q1016 R09/010070 NOSIG=
10.02.19 00:53:06 | SARS10 ERZW 100052
SPECI UDYZ 100052Z 06001KT 1500 1400N R09/P2000U BR FEW043 02/01 Q1016 R09/010070 TEMPO 0600 FG=
10.02.19 01:01:00 | SARS10 ERZW 100100
METAR UDYZ 100100Z 04001KT 1200 1000W R09/1800D BR NSC 02/01 Q1016 R09/010070 TEMPO 0600 FG=
10.02.19 01:16:29 | SARS10 ERZW 100115
SPECI UDYZ 100115Z 00000KT 1700 0600W R09/1500D FG NSC 02/01 Q1016 R09/010070 TEMPO 0200 FG VV001=
10.02.19 01:27:20 | SARS10 ERZW 100126
SPECI UDYZ 100126Z 25004KT 1400 1000N R09/P2000U BR NSC 02/01 Q1017 R09/010070 TEMPO 0600 FG=
10.02.19 01:31:06 | SARS10 ERZW 100130
METAR UDYZ 100130Z 25004KT 1000 R09/1800D BR NSC 01/01 Q1017 R09/010070 TEMPO 0600 FG=
10.02.19 02:01:06 | SARS10 ERZW 100200
METAR UDYZ 100200Z 32002KT 1300 0900E R09/P2000U BR BCFG SCT016 01/01 Q1017 R09/010070 TEMPO 0600 FG=
10.02.19 02:31:07 | SARS10 ERZW 100230
METAR UDYZ 100230Z 34002KT 1800 1400E R09/P2000N BR SCT020 02/01 Q1017 R09/010070 TEMPO 0600 FG=
10.02.19 02:46:27 | SARS10 ERZW 100245
SPECI UDYZ 100245Z 33002KT 2000 R09/P2000N BR SCT026 02/01 Q1017 R09/010070 NOSIG=
10.02.19 03:01:06 | SARS10 ERZW 100300
METAR UDYZ 100300Z 33001KT 2000 R09/P2000N BR SCT026 02/01 Q1017 R09/010070 NOSIG=
10.02.19 03:31:06 | SARS10 ERZW 100330
METAR UDYZ 100330Z VRB01KT 1800 R09/2000N BR SCT036 02/02 Q1017 R09/010070 NOSIG=
10.02.19 04:01:06 | SARS10 ERZW 100400
METAR UDYZ 100400Z 09002KT 1700 R09/1800U BR SCT020 02/02 Q1017 R09/010070 NOSIG=
10.02.19 04:31:06 | SARS10 ERZW 100430
METAR UDYZ 100430Z 08002KT 2000 R09/2000N BR BKN020 03/02 Q1017 R09/010070 NOSIG=
10.02.19 05:01:06 | SARS10 ERZW 100500
METAR UDYZ 100500Z 00000KT 2000 R09/2000N BR BKN020 03/02 Q1018 R09/010070 NOSIG=
10.02.19 05:31:06 | SARS10 ERZW 100530
METAR UDYZ 100530Z 26001KT 1800 R09/1500D BR BKN020 03/02 Q1018 R09/010070 NOSIG=
10.02.19 06:01:06 | SARS10 ERZW 100600
METAR UDYZ 100600Z 36001KT 2000 R09/2000N BR BKN020 04/03 Q1018 R09/010070 NOSIG=
10.02.19 06:31:06 | SARS10 ERZW 100630
METAR UDYZ 100630Z 00000KT 2000 R09/2000N BR BKN020 05/03 Q1018 R09/010070 NOSIG=
10.02.19 07:01:06 | SARS10 ERZW 100700
METAR UDYZ 100700Z 20003KT 2000 R09/2000N BR BKN020 05/03 Q1018 R09/010070 NOSIG=
10.02.19 07:31:06 | SARS10 ERZW 100730
METAR UDYZ 100730Z 18003KT 2000 R09/2000N BR BKN020 06/04 Q1018 R09/010070 NOSIG=
10.02.19 07:47:20 | SARS10 ERZW 100746
SPECI UDYZ 100746Z 20003KT 2000 R09/2000N BR BKN008 BKN023 06/04 Q1018 R09/010070 NOSIG=
10.02.19 08:01:06 | SARS10 ERZW 100800
METAR UDYZ 100800Z VRB02KT 2000 R09/2000N BR BKN008 BKN023 06/04 Q1018 R09/010070 NOSIG=
10.02.19 08:31:06 | SARS10 ERZW 100830
METAR UDYZ 100830Z VRB01KT 2300 BR SCT008 BKN023 07/03 Q1018 R09/010070 NOSIG=
10.02.19 09:01:06 | SARS10 ERZW 100900
METAR UDYZ 100900Z VRB01KT 2300 BR BKN010 BKN023 07/03 Q1018 R09/010070 NOSIG=
10.02.19 09:31:06 | SARS10 ERZW 100930
METAR UDYZ 100930Z VRB01KT 2300 BR BKN013 BKN026 07/04 Q1018 R09/010070 NOSIG=
10.02.19 10:01:06 | SARS10 ERZW 101000
METAR UDYZ 101000Z VRB01KT 3500 BR BKN013 BKN026 08/04 Q1017 R09/010070 NOSIG=
10.02.19 10:31:06 | SARS10 ERZW 101030
METAR UDYZ 101030Z VRB02G14KT 3500 BR SCT013 BKN026 09/03 Q1017 R09/010070 NOSIG=
10.02.19 11:01:06 | SARS10 ERZW 101100
METAR UDYZ 101100Z VRB01KT 6000 BKN026 09/03 Q1016 R09/010070 NOSIG=
10.02.19 11:31:06 | SARS10 ERZW 101130
METAR UDYZ 101130Z VRB02KT 6000 BKN026 09/02 Q1016 R09/010070 NOSIG=
10.02.19 12:01:06 | SARS10 ERZW 101200
METAR UDYZ 101200Z VRB02KT 6000 BKN026 09/02 Q1016 R09/010070 NOSIG=
10.02.19 12:31:06 | SARS10 ERZW 101230
METAR UDYZ 101230Z 17002KT 6000 BKN026 09/02 Q1016 R09/010070 NOSIG=
10.02.19 13:01:06 | SARS10 ERZW 101300
METAR UDYZ 101300Z VRB01KT 6000 SCT026 09/02 Q1016 R09/010070 NOSIG=
10.02.19 13:31:06 | SARS10 ERZW 101330
METAR UDYZ 101330Z 00000KT 6000 FEW026 09/02 Q1016 R09/010070 NOSIG=
10.02.19 14:01:06 | SARS10 ERZW 101400
METAR UDYZ 101400Z 33001KT 6000 FEW033 08/02 Q1016 R09/010070 NOSIG=
10.02.19 14:31:06 | SARS10 ERZW 101430
METAR UDYZ 101430Z 36007KT 6000 FEW033 07/02 Q1016 R09/010070 NOSIG=
10.02.19 15:01:06 | SARS10 ERZW 101500
METAR UDYZ 101500Z 02003KT 6000 FEW033 06/01 Q1016 R09/010070 NOSIG=
10.02.19 15:31:06 | SARS10 ERZW 101530
METAR UDYZ 101530Z 36003KT 6000 FEW046 05/01 Q1017 R09/010070 NOSIG=
10.02.19 16:01:06 | SARS10 ERZW 101600
METAR UDYZ 101600Z 01003KT 6000 FEW046 04/01 Q1017 R09/010070 NOSIG=
10.02.19 16:31:06 | SARS10 ERZW 101630
METAR UDYZ 101630Z 01001KT 6000 FEW046 04/01 Q1017 R09/010070 NOSIG=
10.02.19 17:01:06 | SARS10 ERZW 101700
METAR UDYZ 101700Z 00000KT 6000 FEW046 04/01 Q1017 R09/010070 NOSIG=
10.02.19 17:31:06 | SARS10 ERZW 101730
METAR UDYZ 101730Z 03001KT 6000 SCT046 04/01 Q1017 R09/010070 NOSIG=
10.02.19 18:01:06 | SARS10 ERZW 101800
METAR UDYZ 101800Z 00000KT 6000 SCT046 04/01 Q1017 R09/010070 NOSIG=
10.02.19 18:31:06 | SARS10 ERZW 101830
METAR UDYZ 101830Z 00000KT 6000 BKN046 04/01 Q1017 R09/010070 NOSIG=
10.02.19 19:01:06 | SARS10 ERZW 101900
METAR UDYZ 101900Z 00000KT 6000 BKN046 04/01 Q1017 R09/010070 NOSIG=
10.02.19 19:31:06 | SARS10 ERZW 101930
METAR UDYZ 101930Z 33001KT 6000 BKN046 03/00 Q1017 R09/010070 NOSIG=
10.02.19 20:01:06 | SARS10 ERZW 102000
METAR UDYZ 102000Z VRB01KT 6000 BKN046 03/00 Q1017 R09/010070 NOSIG=
10.02.19 20:31:06 | SARS10 ERZW 102030
METAR UDYZ 102030Z 33001KT 6000 BKN046 03/01 Q1017 R09/010070 NOSIG=
10.02.19 20:42:27 | SARS10 ERZW 102041
SPECI UDYZ 102041Z VRB02KT 3500 BR BKN046 03/01 Q1017 R09/010070 NOSIG=
10.02.19 21:01:06 | SARS10 ERZW 102100
METAR UDYZ 102100Z 00000KT 3500 BR SCT046 03/00 Q1017 R09/010070 NOSIG=
10.02.19 21:31:07 | SARS10 ERZW 102130
METAR UDYZ 102130Z 11001KT 3500 BR SCT046 02/M00 Q1017 R09/010070 NOSIG=
10.02.19 22:01:07 | SARS10 ERZW 102200
METAR UDYZ 102200Z 00000KT 3500 BR SCT046 01/M00 Q1017 R09/010070 NOSIG=
10.02.19 22:31:07 | SARS10 ERZW 102230
METAR UDYZ 102230Z 34003KT 3500 BR SCT046 00/M01 Q1017 R09/010070 NOSIG=
10.02.19 23:01:07 | SARS10 ERZW 102300
METAR UDYZ 102300Z 35003KT 3500 BR SCT046 01/M01 Q1017 R09/010070 NOSIG=
10.02.19 23:31:20 | SARS10 ERZW 102330
METAR UDYZ 102330Z 00000KT 6000 SCT046 00/M02 Q1017 R09/010070 NOSIG=
10.02.20 00:01:37 | SARS10 ERZW 100000
METAR UDYZ 100000Z 33002KT 9999 NSC M09/M20 Q1019 R09/010070 NOSIG=
10.02.20 00:31:37 | SARS10 ERZW 100030
METAR UDYZ 100030Z 24002KT 9999 NSC M10/M18 Q1019 R09/010070 NOSIG=
10.02.20 01:01:38 | SARS10 ERZW 100100
METAR UDYZ 100100Z 25003KT 9999 NSC M09/M18 Q1020 R09/010070 NOSIG=
10.02.20 01:31:38 | SARS10 ERZW 100130
METAR UDYZ 100130Z VRB02KT 9999 NSC M10/M16 Q1020 R09/010070 NOSIG=
10.02.20 02:01:38 | SARS10 ERZW 100200
METAR UDYZ 100200Z 16001KT 9999 NSC M10/M16 Q1020 R09/010070 NOSIG=
10.02.20 02:31:38 | SARS10 ERZW 100230
METAR UDYZ 100230Z 17001KT 9999 NSC M10/M16 Q1020 R09/010070 NOSIG=
10.02.20 03:01:38 | SARS10 ERZW 100300
METAR UDYZ 100300Z 00000KT 9999 NSC M10/M16 Q1020 R09/010070 NOSIG=
10.02.20 03:31:38 | SARS10 ERZW 100330
METAR UDYZ 100330Z 15001KT 9999 NSC M10/M16 Q1020 R09/010070 NOSIG=
10.02.20 04:01:38 | SARS10 ERZW 100400
METAR UDYZ 100400Z VRB01KT 9999 NSC M10/M16 Q1020 R09/010070 NOSIG=
10.02.20 04:31:38 | SARS10 ERZW 100430
METAR UDYZ 100430Z 00000KT 9999 NSC M10/M15 Q1021 R09/010070 NOSIG=
10.02.20 05:01:38 | SARS10 ERZW 100500
METAR UDYZ 100500Z 08001KT 9999 NSC M09/M16 Q1021 R09/010070 NOSIG=
10.02.20 05:31:38 | SARS10 ERZW 100530
METAR UDYZ 100530Z 13001KT 9999 FEW046 M08/M16 Q1021 R09/010070 NOSIG=
10.02.20 06:01:38 | SARS10 ERZW 100600
METAR UDYZ 100600Z 00000KT 9999 FEW046 M08/M17 Q1021 R09/010070 NOSIG=
10.02.20 06:31:38 | SARS10 ERZW 100630
METAR UDYZ 100630Z 00000KT 9999 FEW046 M07/M18 Q1021 R09/010070 NOSIG=
10.02.20 07:01:38 | SARS10 ERZW 100700
METAR UDYZ 100700Z VRB01KT 9999 NSC M07/M18 Q1021 R09/010070 NOSIG=
10.02.20 07:31:38 | SARS10 ERZW 100730
METAR UDYZ 100730Z 00000KT 9999 NSC M06/M18 Q1021 R09/010070 NOSIG=
10.02.20 08:01:38 | SARS10 ERZW 100800
METAR UDYZ 100800Z VRB01KT 9999 NSC M06/M17 Q1021 R09/010070 NOSIG=
10.02.20 08:31:38 | SARS10 ERZW 100830
METAR UDYZ 100830Z VRB02KT 9999 NSC M04/M17 Q1021 R09/010070 NOSIG=
10.02.20 09:01:38 | SARS10 ERZW 100900
METAR UDYZ 100900Z VRB01KT 9999 NSC M04/M20 Q1021 R09/010070 NOSIG=
10.02.20 09:31:38 | SARS10 ERZW 100930
METAR UDYZ 100930Z VRB02KT 9999 NSC M04/M19 Q1020 R09/010070 NOSIG=
10.02.20 10:01:38 | SARS10 ERZW 101000
METAR UDYZ 101000Z 29003KT 250V320 9999 NSC M04/M17 Q1019 R09/010070 NOSIG=
10.02.20 10:31:38 | SARS10 ERZW 101030
METAR UDYZ 101030Z 23002KT 9999 NSC M03/M18 Q1019 R09/010070 NOSIG=
10.02.20 11:01:38 | SARS10 ERZW 101100
METAR UDYZ 101100Z VRB02KT 9999 NSC M03/M18 Q1019 R09/010070 NOSIG=
10.02.20 11:31:38 | SARS10 ERZW 101130
METAR UDYZ 101130Z 24004KT 220V290 9999 NSC M02/M18 Q1018 R09/010070 NOSIG=
10.02.20 12:01:38 | SARS10 ERZW 101200
METAR UDYZ 101200Z 28003KT 230V320 9999 NSC M02/M17 Q1019 R09/010070 NOSIG=
10.02.20 12:31:38 | SARS10 ERZW 101230
METAR UDYZ 101230Z 10002KT 9999 NSC M02/M17 Q1019 R09/010070 NOSIG=
10.02.20 13:01:54 | SARS10 ERZW 101300
METAR UDYZ 101300Z VRB02KT 9999 NSC M02/M18 Q1019 R09/010070 NOSIG=
10.02.20 13:31:51 | SARS10 ERZW 101330
METAR UDYZ 101330Z 26003KT 9999 NSC M03/M17 Q1019 R09/010070 NOSIG=
10.02.20 14:01:38 | SARS10 ERZW 101400
METAR UDYZ 101400Z 05001KT 9999 NSC M03/M14 Q1019 R09/010070 NOSIG=
10.02.20 14:31:38 | SARS10 ERZW 101430
METAR UDYZ 101430Z 01007KT 9999 NSC M03/M16 Q1019 R09/010070 NOSIG=
10.02.20 15:01:38 | SARS10 ERZW 101500
METAR UDYZ 101500Z 02006KT 9999 NSC M03/M15 Q1019 R09/010070 NOSIG=
10.02.20 15:31:38 | SARS10 ERZW 101530
METAR UDYZ 101530Z 03007KT 9999 NSC M04/M15 Q1019 R09/010070 NOSIG=
10.02.20 16:01:38 | SARS10 ERZW 101600
METAR UDYZ 101600Z 35009KT 9999 NSC M05/M16 Q1019 R09/010070 NOSIG=
10.02.20 16:31:38 | SARS10 ERZW 101630
METAR UDYZ 101630Z 36010KT 9999 NSC M05/M16 Q1019 R09/010070 NOSIG=
10.02.20 17:01:38 | SARS10 ERZW 101700
METAR UDYZ 101700Z 36010KT 9999 NSC M05/M17 Q1020 R09/010070 NOSIG=
10.02.20 17:31:38 | SARS10 ERZW 101730
METAR UDYZ 101730Z 36009KT 9999 NSC M05/M17 Q1020 R09/010070 NOSIG=
10.02.20 18:01:38 | SARS10 ERZW 101800
METAR UDYZ 101800Z 35009KT 9999 NSC M05/M18 Q1020 R09/010070 NOSIG=
10.02.20 18:31:38 | SARS10 ERZW 101830
METAR UDYZ 101830Z 34009KT 9999 NSC M05/M17 Q1020 R09/010070 NOSIG=
10.02.20 19:01:38 | SARS10 ERZW 101900
METAR UDYZ 101900Z 35005KT 9999 NSC M06/M17 Q1020 R09/010070 NOSIG=
10.02.20 19:31:38 | SARS10 ERZW 101930
METAR UDYZ 101930Z 02005KT 9999 NSC M07/M17 Q1020 R09/010070 NOSIG=
10.02.20 20:01:38 | SARS10 ERZW 102000
METAR UDYZ 102000Z 06005KT 9999 NSC M07/M17 Q1020 R09/010070 NOSIG=
10.02.20 20:31:38 | SARS10 ERZW 102030
METAR UDYZ 102030Z 02001KT 9999 NSC M08/M17 Q1020 R09/010070 NOSIG=
10.02.20 21:01:38 | SARS10 ERZW 102100
METAR UDYZ 102100Z VRB01KT 9999 NSC M08/M17 Q1020 R09/010070 NOSIG=
10.02.20 21:31:38 | SARS10 ERZW 102130
METAR UDYZ 102130Z 00000KT 9999 NSC M10/M17 Q1020 R09/010070 NOSIG=
10.02.20 22:01:38 | SARS10 ERZW 102200
METAR UDYZ 102200Z VRB01KT 9999 NSC M09/M17 Q1020 R09/010070 NOSIG=
10.02.20 22:31:38 | SARS10 ERZW 102230
METAR UDYZ 102230Z 31002KT 9999 NSC M10/M17 Q1020 R09/010070 NOSIG=
10.02.20 23:01:38 | SARS10 ERZW 102300
METAR UDYZ 102300Z 36003KT 9999 NSC M11/M17 Q1020 R09/010070 NOSIG=
10.02.20 23:31:38 | SARS10 ERZW 102330
METAR UDYZ 102330Z 26001KT 9999 NSC M11/M17 Q1020 R09/010070 NOSIG=
