07.02.16 00:00:54 | SARS10 ERZW 062000
METAR UDYZ 062000Z 07002MPS 2300 BR BKN046 01/M02 Q1013 R09/000070 NOSIG=
07.02.16 00:30:54 | SARS10 ERZW 062030
METAR UDYZ 062030Z VRB01MPS 2300 BR BKN046 00/M02 Q1013 R09/000070 NOSIG=
07.02.16 01:00:54 | SARS10 ERZW 062100
METAR UDYZ 062100Z VRB01MPS 2300 BR BKN046 00/M03 Q1013 R09/000070 NOSIG=
07.02.16 01:30:54 | SARS10 ERZW 062130
METAR UDYZ 062130Z 00000MPS 2300 BR BKN046 00/M03 Q1013 R09/000070 NOSIG=
07.02.16 02:00:54 | SARS10 ERZW 062200
METAR UDYZ 062200Z 00000MPS 2300 BR BKN046 00/M02 Q1013 R09/000070 NOSIG=
07.02.16 02:30:54 | SARS10 ERZW 062230
METAR UDYZ 062230Z VRB01MPS 2300 BR BKN046 M00/M02 Q1013 R09/000070 NOSIG=
07.02.16 03:00:54 | SARS10 ERZW 062300
METAR UDYZ 062300Z VRB01MPS 2300 BR BKN046 00/M02 Q1013 R09/000070 NOSIG=
07.02.16 03:30:54 | SARS10 ERZW 062330
METAR UDYZ 062330Z 00000MPS 2300 BR BKN046 M00/M02 Q1013 R09/000070 NOSIG=
07.02.16 04:00:54 | SARS10 ERZW 070000
METAR UDYZ 070000Z VRB01MPS 2300 BR BKN046 M00/M02 Q1012 R09/000070 NOSIG=
07.02.16 04:30:54 | SARS10 ERZW 070030
METAR UDYZ 070030Z 00000MPS 2300 BR SCT046 M00/M02 Q1012 R09/000070 NOSIG=
07.02.16 05:00:54 | SARS10 ERZW 070100
METAR UDYZ 070100Z VRB01MPS 2300 BR BKN046 M01/M02 Q1012 R09/000070 NOSIG=
07.02.16 05:30:58 | SARS10 ERZW 070130
METAR UDYZ 070130Z 00000MPS 2300 BR BKN046 M00/M02 Q1012 R09/000070 NOSIG=
07.02.16 06:00:58 | SARS10 ERZW 070200
METAR UDYZ 070200Z VRB01MPS 2300 BR BKN046 M00/M02 Q1012 R09/000070 NOSIG=
07.02.16 06:30:58 | SARS10 ERZW 070230
METAR UDYZ 070230Z VRB01MPS 2300 BR BKN046 00/M02 Q1011 R09/000070 NOSIG=
07.02.16 07:00:58 | SARS10 ERZW 070300
METAR UDYZ 070300Z 25002MPS 2300 BR BKN046 M00/M02 Q1012 R09/000070 NOSIG=
07.02.16 07:30:58 | SARS10 ERZW 070330
METAR UDYZ 070330Z 00000MPS 2300 BR BKN046 M00/M02 Q1012 R09/000070 NOSIG=
07.02.16 08:00:59 | SARS10 ERZW 070400
METAR UDYZ 070400Z VRB01MPS 2300 BR BKN046 M00/M02 Q1012 R09/000070 NOSIG=
07.02.16 08:30:59 | SARS10 ERZW 070430
METAR UDYZ 070430Z 00000MPS 2300 BR BKN046 M00/M02 Q1013 R09/000070 NOSIG=
07.02.16 09:00:58 | SARS10 ERZW 070500
METAR UDYZ 070500Z 00000MPS 1800 R09/2000D BR BKN046 M00/M02 Q1013 R09/000070 NOSIG=
07.02.16 09:30:59 | SARS10 ERZW 070530
METAR UDYZ 070530Z VRB01MPS 2000 R09/2000N BR BKN046 00/M02 Q1013 R09/000070 NOSIG=
07.02.16 10:00:59 | SARS10 ERZW 070600
METAR UDYZ 070600Z VRB01MPS 2000 R09/2000N BR BKN046 01/M02 Q1013 R09/000070 NOSIG=
07.02.16 10:30:58 | SARS10 ERZW 070630
METAR UDYZ 070630Z 00000MPS 2000 R09/2000N BR BKN040 01/M01 Q1013 R09/000070 NOSIG=
07.02.16 11:00:58 | SARS10 ERZW 070700
METAR UDYZ 070700Z 00000MPS 2000 R09/2000N BR BKN040 01/M01 Q1014 R09/000070 NOSIG=
07.02.16 11:30:59 | SARS10 ERZW 070730
METAR UDYZ 070730Z VRB01MPS 2000 R09/2000N BR BKN036 02/M01 Q1013 R09/000070 NOSIG=
07.02.16 12:00:59 | SARS10 ERZW 070800
METAR UDYZ 070800Z 00000MPS 2000 R09/2000N BR BKN033 02/M02 Q1013 R09/000070 NOSIG=
07.02.16 12:30:59 | SARS10 ERZW 070830
METAR UDYZ 070830Z VRB01MPS 2300 BR BKN033 04/M02 Q1012 R09/000070 NOSIG=
07.02.16 13:00:59 | SARS10 ERZW 070900
METAR UDYZ 070900Z VRB01MPS 2300 BR BKN033 04/M02 Q1011 R09/000070 NOSIG=
07.02.16 13:30:59 | SARS10 ERZW 070930
METAR UDYZ 070930Z 21004MPS 2300 BR BKN033 04/M01 Q1013 R09/000070 NOSIG=
07.02.16 14:00:59 | SARS10 ERZW 071000
METAR UDYZ 071000Z VRB01MPS 2300 BR BKN033CB 03/M00 Q1012 R09/000070 NOSIG=
07.02.16 14:30:58 | SARS10 ERZW 071030
METAR UDYZ 071030Z 34002MPS 290V360 2300 BR BKN033CB 04/M00 Q1012 R09/000070 NOSIG=
07.02.16 15:00:59 | SARS10 ERZW 071100
METAR UDYZ 071100Z 00000MPS 2300 BR BKN033CB 04/M01 Q1011 R09/000070 NOSIG=
07.02.16 15:30:59 | SARS10 ERZW 071130
METAR UDYZ 071130Z VRB01MPS 2300 BR BKN033CB 04/M01 Q1011 R09/000070 NOSIG=
07.02.16 16:00:59 | SARS10 ERZW 071200
METAR UDYZ 071200Z 26002MPS 2300 BR BKN033CB 04/M00 Q1011 R09/000070 NOSIG=
07.02.16 16:30:59 | SARS10 ERZW 071230
METAR UDYZ 071230Z 25002MPS 2300 BR BKN033CB 04/M01 Q1011 R09/000070 NOSIG=
07.02.16 17:00:59 | SARS10 ERZW 071300
METAR UDYZ 071300Z 30002MPS 2300 BR BKN033CB 04/M00 Q1011 R09/000070 NOSIG=
07.02.16 17:30:59 | SARS10 ERZW 071330
METAR UDYZ 071330Z VRB01MPS 2300 BR BKN033CB 04/M00 Q1011 R09/000070 NOSIG=
07.02.16 18:00:59 | SARS10 ERZW 071400
METAR UDYZ 071400Z 00000MPS 2300 BR BKN033CB 04/M00 Q1011 R09/000070 NOSIG=
07.02.16 18:30:59 | SARS10 ERZW 071430
METAR UDYZ 071430Z VRB01MPS 2300 BR BKN033CB 03/M00 Q1011 R09/000070 NOSIG=
07.02.16 19:00:59 | SARS10 ERZW 071500
METAR UDYZ 071500Z 00000MPS 2300 BR BKN033CB 03/M00 Q1011 R09/000070 NOSIG=
07.02.16 19:30:59 | SARS10 ERZW 071530
METAR UDYZ 071530Z 00000MPS 2300 BR BKN033CB 03/M00 Q1012 R09/000070 NOSIG=
07.02.16 20:00:59 | SARS10 ERZW 071600
METAR UDYZ 071600Z 15003MPS 2300 BR BKN033CB 03/M00 Q1013 R09/000070 NOSIG=
07.02.16 20:30:59 | SARS10 ERZW 071630
METAR UDYZ 071630Z 13002MPS 2300 -SHRA BR BKN026CB 03/01 Q1013 R09/000070 NOSIG=
07.02.16 20:56:34 | SARS10 ERZW 071655
SPECI UDYZ 071655Z VRB01MPS 2000 R09/P2000D SHRA BR SCT013 BKN026CB 02/01 Q1014 R09/000070 NOSIG=
07.02.16 21:00:59 | SARS10 ERZW 071700
METAR UDYZ 071700Z VRB01MPS 2000 R09/P2000D SHRA BR SCT013 BKN026CB 02/01 Q1014 R09/000070 NOSIG=
07.02.16 21:10:05 | SARS10 ERZW 071709
SPECI UDYZ 071709Z 08002MPS 1900 1300 R09/P2000N SHRA BR SCT008 BKN026CB 02/01 Q1014 R09/290060 NOSIG=
07.02.16 21:30:59 | SARS10 ERZW 071730
METAR UDYZ 071730Z VRB01MPS 1700 R09/P2000U SHRA BR SCT006 OVC026CB 02/01 Q1014 R09/290060 NOSIG=
07.02.16 22:00:59 | SARS10 ERZW 071800
METAR UDYZ 071800Z 02003MPS 1000 R09/2000N SHRA BR SCT005 OVC026CB 01/00 Q1014 R09/290060 NOSIG=
07.02.16 22:30:59 | SARS10 ERZW 071830
METAR UDYZ 071830Z 03002MPS 1000 R09/1800N SHRA BR SCT013 OVC030CB 01/00 Q1014 R09/290060 NOSIG=
07.02.16 23:00:59 | SARS10 ERZW 071900
METAR UDYZ 071900Z 04002MPS 1400 R09/P2000U SHRA BR OVC020CB 01/01 Q1014 R09/290060 NOSIG=
07.02.16 23:30:59 | SARS10 ERZW 071930
METAR UDYZ 071930Z VRB01MPS 1800 1000 R09/P2000N BR OVC020CB 01/01 Q1014 R09/290060 NOSIG=
07.02.19 00:00:59 | SARS10 ERZW 070000
METAR UDYZ 070000Z 00000KT 3500 BR NSC M04/M06 Q1025 R09/010070 NOSIG=
07.02.19 00:30:58 | SARS10 ERZW 070030
METAR UDYZ 070030Z 27002KT 3500 BR NSC M04/M05 Q1024 R09/010070 NOSIG=
07.02.19 01:00:58 | SARS10 ERZW 070100
METAR UDYZ 070100Z 27001KT 3500 BR NSC M05/M06 Q1024 R09/010070 NOSIG=
07.02.19 01:30:59 | SARS10 ERZW 070130
METAR UDYZ 070130Z 02002KT 3500 BR NSC M06/M07 Q1024 R09/010070 NOSIG=
07.02.19 02:00:59 | SARS10 ERZW 070200
METAR UDYZ 070200Z 04001KT 3500 BR NSC M04/M06 Q1024 R09/010070 NOSIG=
07.02.19 02:30:59 | SARS10 ERZW 070230
METAR UDYZ 070230Z VRB01KT 3500 BR NSC M05/M06 Q1024 R09/010070 NOSIG=
07.02.19 03:00:59 | SARS10 ERZW 070300
METAR UDYZ 070300Z 00000KT 3500 BR NSC M05/M07 Q1024 R09/010070 NOSIG=
07.02.19 03:30:59 | SARS10 ERZW 070330
METAR UDYZ 070330Z VRB01KT 2300 BR NSC M05/M07 Q1024 R09/010070 NOSIG=
07.02.19 04:00:59 | SARS10 ERZW 070400
METAR UDYZ 070400Z 00000KT 2300 BR NSC M04/M05 Q1024 R09/010070 NOSIG=
07.02.19 04:30:59 | SARS10 ERZW 070430
METAR UDYZ 070430Z 00000KT 2300 BR NSC M03/M04 Q1024 R09/010070 NOSIG=
07.02.19 05:00:59 | SARS10 ERZW 070500
METAR UDYZ 070500Z 18001KT 2300 BR NSC M02/M04 Q1024 R09/010070 NOSIG=
07.02.19 05:30:59 | SARS10 ERZW 070530
METAR UDYZ 070530Z 00000KT 3500 BR NSC M02/M04 Q1024 R09/010070 NOSIG=
07.02.19 06:00:59 | SARS10 ERZW 070600
METAR UDYZ 070600Z 25001KT 3500 BR NSC M01/M04 Q1025 R09/010070 NOSIG=
07.02.19 06:30:59 | SARS10 ERZW 070630
METAR UDYZ 070630Z VRB01KT 3500 BR NSC M00/M04 Q1024 R09/010070 NOSIG=
07.02.19 07:00:59 | SARS10 ERZW 070700
METAR UDYZ 070700Z VRB01KT 3500 BR NSC M00/M04 Q1024 R09/010070 NOSIG=
07.02.19 07:30:59 | SARS10 ERZW 070730
METAR UDYZ 070730Z 11001KT 3500 BR NSC 00/M03 Q1024 R09/010070 NOSIG=
07.02.19 08:00:59 | SARS10 ERZW 070800
METAR UDYZ 070800Z 16001KT 3500 BR NSC 01/M03 Q1024 R09/010070 NOSIG=
07.02.19 08:30:59 | SARS10 ERZW 070830
METAR UDYZ 070830Z 20001KT 3500 BR NSC 01/M03 Q1024 R09/010070 NOSIG=
07.02.19 09:00:59 | SARS10 ERZW 070900
METAR UDYZ 070900Z 00000KT 3500 BR NSC 02/M03 Q1024 R09/010070 NOSIG=
07.02.19 09:30:59 | SARS10 ERZW 070930
METAR UDYZ 070930Z 00000KT 6000 NSC 02/M03 Q1023 R09/010070 NOSIG=
07.02.19 10:00:59 | SARS10 ERZW 071000
METAR UDYZ 071000Z VRB01KT 6000 FEW046 03/M03 Q1023 R09/010070 NOSIG=
07.02.19 10:30:59 | SARS10 ERZW 071030
METAR UDYZ 071030Z 00000KT 6000 FEW046 03/M03 Q1023 R09/010070 NOSIG=
07.02.19 11:00:59 | SARS10 ERZW 071100
METAR UDYZ 071100Z VRB01KT 6000 FEW046 04/M03 Q1023 R09/010070 NOSIG=
07.02.19 11:30:59 | SARS10 ERZW 071130
METAR UDYZ 071130Z 13001KT 6000 FEW046 04/M04 Q1022 R09/010070 NOSIG=
07.02.19 12:00:59 | SARS10 ERZW 071200
METAR UDYZ 071200Z 15003KT 6000 FEW046 05/M03 Q1022 R09/010070 NOSIG=
07.02.19 12:30:59 | SARS10 ERZW 071230
METAR UDYZ 071230Z 16004KT 6000 FEW046 05/M03 Q1021 R09/010070 NOSIG=
07.02.19 13:00:59 | SARS10 ERZW 071300
METAR UDYZ 071300Z VRB02KT 6000 FEW046 05/M03 Q1022 R09/010070 NOSIG=
07.02.19 13:30:59 | SARS10 ERZW 071330
METAR UDYZ 071330Z 00000KT 6000 SCT046 05/M03 Q1021 R09/010070 NOSIG=
07.02.19 14:00:59 | SARS10 ERZW 071400
METAR UDYZ 071400Z 00000KT 6000 SCT046 04/M03 Q1021 R09/010070 NOSIG=
07.02.19 14:30:59 | SARS10 ERZW 071430
METAR UDYZ 071430Z 26001KT 6000 SCT046 04/M03 Q1021 R09/010070 NOSIG=
07.02.19 15:00:59 | SARS10 ERZW 071500
METAR UDYZ 071500Z 00000KT 6000 SCT046 04/M03 Q1021 R09/010070 NOSIG=
07.02.19 15:30:59 | SARS10 ERZW 071530
METAR UDYZ 071530Z 00000KT 6000 SCT046 03/M02 Q1021 R09/010070 NOSIG=
07.02.19 16:00:59 | SARS10 ERZW 071600
METAR UDYZ 071600Z 22001KT 6000 SCT046 03/M02 Q1021 R09/010070 NOSIG=
07.02.19 16:30:59 | SARS10 ERZW 071630
METAR UDYZ 071630Z VRB01KT 6000 SCT046 02/M02 Q1021 R09/010070 NOSIG=
07.02.19 17:00:59 | SARS10 ERZW 071700
METAR UDYZ 071700Z 28002KT 6000 SCT046 02/M02 Q1021 R09/010070 NOSIG=
07.02.19 17:30:59 | SARS10 ERZW 071730
METAR UDYZ 071730Z 33002KT 6000 SCT046 01/M02 Q1020 R09/010070 NOSIG=
07.02.19 18:00:59 | SARS10 ERZW 071800
METAR UDYZ 071800Z 29002KT 3500 BR SCT046 01/M02 Q1020 R09/010070 NOSIG=
07.02.19 18:30:59 | SARS10 ERZW 071830
METAR UDYZ 071830Z VRB02KT 3500 BR FEW046 00/M02 Q1020 R09/010070 NOSIG=
07.02.19 19:00:59 | SARS10 ERZW 071900
METAR UDYZ 071900Z 00000KT 3500 BR FEW046 00/M02 Q1020 R09/010070 NOSIG=
07.02.19 19:30:59 | SARS10 ERZW 071930
METAR UDYZ 071930Z 00000KT 3500 BR FEW046 M01/M03 Q1020 R09/010070 NOSIG=
07.02.19 20:00:59 | SARS10 ERZW 072000
METAR UDYZ 072000Z 09001KT 3500 BR FEW046 00/M02 Q1021 R09/010070 NOSIG=
07.02.19 20:30:59 | SARS10 ERZW 072030
METAR UDYZ 072030Z 00000KT 3500 BR FEW046 00/M02 Q1021 R09/010070 NOSIG=
07.02.19 21:00:59 | SARS10 ERZW 072100
METAR UDYZ 072100Z 06001KT 3500 BR FEW046 00/M02 Q1021 R09/010070 NOSIG=
07.02.19 21:30:59 | SARS10 ERZW 072130
METAR UDYZ 072130Z 06002KT 3500 BR FEW046 01/M01 Q1021 R09/010070 NOSIG=
07.02.19 22:00:59 | SARS10 ERZW 072200
METAR UDYZ 072200Z 08003KT 3500 BR FEW046 02/M02 Q1020 R09/010070 NOSIG=
07.02.19 22:30:59 | SARS10 ERZW 072230
METAR UDYZ 072230Z 25002KT 3500 BR FEW046 01/M02 Q1019 R09/010070 NOSIG=
07.02.19 23:00:59 | SARS10 ERZW 072300
METAR UDYZ 072300Z 26002KT 3500 BR FEW046 01/M02 Q1019 R09/010070 NOSIG=
07.02.19 23:30:59 | SARS10 ERZW 072330
METAR UDYZ 072330Z 30002KT 3500 BR FEW046 01/M02 Q1019 R09/010070 NOSIG=
07.02.20 00:01:36 | SARS10 ERZW 070000
METAR UDYZ 070000Z 16006KT 9999 FEW046 09/M04 Q1011 R09/010070 NOSIG=
07.02.20 00:31:36 | SARS10 ERZW 070030
METAR UDYZ 070030Z 15004KT 9999 FEW046 09/M03 Q1011 R09/010070 NOSIG=
07.02.20 01:01:36 | SARS10 ERZW 070100
METAR UDYZ 070100Z 14005KT 9999 FEW046 09/M03 Q1010 R09/010070 NOSIG=
07.02.20 01:31:36 | SARS10 ERZW 070130
METAR UDYZ 070130Z 15005KT 9999 FEW046 09/M03 Q1010 R09/010070 NOSIG=
07.02.20 02:01:36 | SARS10 ERZW 070200
METAR UDYZ 070200Z 15010KT 9999 FEW046 10/M04 Q1009 R09/010070 NOSIG=
07.02.20 02:31:36 | SARS10 ERZW 070230
METAR UDYZ 070230Z 14009KT 9999 SCT046 10/M04 Q1009 R09/010070 NOSIG=
07.02.20 03:01:36 | SARS10 ERZW 070300
METAR UDYZ 070300Z 14011KT 9999 SCT046 10/M04 Q1009 R09/010070 NOSIG=
07.02.20 03:31:36 | SARS10 ERZW 070330
METAR UDYZ 070330Z 14012KT 9999 SCT046 10/M04 Q1009 R09/010070 NOSIG=
07.02.20 04:01:36 | SARS10 ERZW 070400
METAR UDYZ 070400Z 14011KT 9999 SCT046 10/M04 Q1009 R09/010070 NOSIG=
07.02.20 04:31:36 | SARS10 ERZW 070430
METAR UDYZ 070430Z 13011KT 9999 BKN046 10/M04 Q1009 R09/010070 NOSIG=
07.02.20 05:01:36 | SARS10 ERZW 070500
METAR UDYZ 070500Z 13012KT 9999 BKN046 10/M04 Q1009 R09/010070 NOSIG=
07.02.20 05:31:36 | SARS10 ERZW 070530
METAR UDYZ 070530Z 13012KT 9999 BKN046 11/M04 Q1008 R09/010070 NOSIG=
07.02.20 06:01:36 | SARS10 ERZW 070600
METAR UDYZ 070600Z 14016KT 9999 BKN046 11/M04 Q1008 R09/010070 NOSIG=
07.02.20 06:31:36 | SARS10 ERZW 070630
METAR UDYZ 070630Z 13014KT 9999 BKN046 11/M04 Q1008 R09/010070 NOSIG=
07.02.20 06:49:14 | SARS10 ERZW 070647
SPECI UDYZ 070647Z 13018KT 9999 BKN046 11/M04 Q1008 R09/010070 TEMPO 15020G30KT=
07.02.20 07:01:36 | SARS10 ERZW 070700
METAR UDYZ 070700Z 13016G27KT 9999 BKN046 11/M04 Q1008 R09/010070 TEMPO 15020G30KT=
07.02.20 07:31:36 | SARS10 ERZW 070730
METAR UDYZ 070730Z 14016KT 9999 BKN046 11/M04 Q1007 R09/010070 TEMPO 15020G30KT=
