13.02.16 00:01:21 | SARS10 ERZW 122000
METAR UDYZ 122000Z VRB01MPS 3500 BR NSC M03/M04 Q1026 R09/0///70 NOSIG=
13.02.16 00:31:21 | SARS10 ERZW 122030
METAR UDYZ 122030Z 00000MPS 3500 BR NSC M03/M05 Q1026 R09/0///70 NOSIG=
13.02.16 01:01:21 | SARS10 ERZW 122100
METAR UDYZ 122100Z VRB01MPS 3500 BR NSC M03/M04 Q1026 R09/0///70 NOSIG=
13.02.16 01:31:22 | SARS10 ERZW 122130
METAR UDYZ 122130Z VRB01MPS 3500 BR NSC M04/M05 Q1026 R09/0///70 NOSIG=
13.02.16 02:01:21 | SARS10 ERZW 122200
METAR UDYZ 122200Z VRB01MPS 3500 BR NSC M04/M05 Q1026 R09/0///70 NOSIG=
13.02.16 02:31:22 | SARS10 ERZW 122230
METAR UDYZ 122230Z 00000MPS 3500 BR NSC M03/M05 Q1026 R09/0///70 NOSIG=
13.02.16 03:01:22 | SARS10 ERZW 122300
METAR UDYZ 122300Z 00000MPS 3500 BR NSC M04/M06 Q1026 R09/0///70 NOSIG=
13.02.16 03:31:21 | SARS10 ERZW 122330
METAR UDYZ 122330Z VRB01MPS 3500 BR NSC M05/M06 Q1026 R09/0///70 NOSIG=
13.02.16 04:01:22 | SARS10 ERZW 130000
METAR UDYZ 130000Z VRB01MPS 3500 BR NSC M05/M06 Q1026 R09/0///70 NOSIG=
13.02.16 04:31:22 | SARS10 ERZW 130030
METAR UDYZ 130030Z 00000MPS 3500 BR NSC M05/M06 Q1026 R09/0///70 NOSIG=
13.02.16 05:01:22 | SARS10 ERZW 130100
METAR UDYZ 130100Z 00000MPS 3500 BR NSC M05/M06 Q1026 R09/0///70 NOSIG=
13.02.16 05:31:22 | SARS10 ERZW 130130
METAR UDYZ 130130Z 00000MPS 3500 BR NSC M05/M06 Q1026 R09/0///70 NOSIG=
13.02.16 06:01:22 | SARS10 ERZW 130200
METAR UDYZ 130200Z 00000MPS 3500 BR NSC M05/M06 Q1026 R09/0///70 NOSIG=
13.02.16 06:31:22 | SARS10 ERZW 130230
METAR UDYZ 130230Z 00000MPS 3500 BR NSC M05/M07 Q1026 R09/0///70 NOSIG=
13.02.16 07:01:22 | SARS10 ERZW 130300
METAR UDYZ 130300Z VRB01MPS 3500 BR NSC M05/M06 Q1026 R09/0///70 NOSIG=
13.02.16 07:31:22 | SARS10 ERZW 130330
METAR UDYZ 130330Z 00000MPS 3500 BR NSC M05/M06 Q1026 R09/0///70 NOSIG=
13.02.16 08:01:22 | SARS10 ERZW 130400
METAR UDYZ 130400Z VRB01MPS 3500 BR NSC M05/M07 Q1026 R09/0///70 NOSIG=
13.02.16 08:11:52 | SARS10 ERZW 130410
SPECI UDYZ 130410Z 00000MPS 2300 BR NSC M05/M07 Q1026 R09/0///70 NOSIG=
13.02.16 08:31:22 | SARS10 ERZW 130430
METAR UDYZ 130430Z 00000MPS 2300 BR NSC M05/M07 Q1026 R09/0///70 NOSIG=
13.02.16 09:01:22 | SARS10 ERZW 130500
METAR UDYZ 130500Z 00000MPS 2300 BR NSC M04/M06 Q1026 R09/0///70 NOSIG=
13.02.16 09:32:09 | SARS10 ERZW 130530
METAR UDYZ 130530Z 00000MPS 2300 BR NSC M02/M04 Q1026 R09/0///70 NOSIG=
13.02.16 10:01:22 | SARS10 ERZW 130600
METAR UDYZ 130600Z 00000MPS 2300 BR NSC M02/M04 Q1026 R09/0///70 NOSIG=
13.02.16 10:31:22 | SARS10 ERZW 130630
METAR UDYZ 130630Z VRB01MPS 3500 BR NSC M01/M04 Q1026 R09/0///70 NOSIG=
13.02.16 11:01:22 | SARS10 ERZW 130700
METAR UDYZ 130700Z VRB01MPS 3500 BR NSC 01/M04 Q1026 R09/0///70 NOSIG=
13.02.16 11:31:22 | SARS10 ERZW 130730
METAR UDYZ 130730Z VRB01MPS 3500 BR NSC 02/M04 Q1026 R09/0///70 NOSIG=
13.02.16 12:01:22 | SARS10 ERZW 130800
METAR UDYZ 130800Z VRB01MPS 6000 NSC 02/M03 Q1026 R09/0///70 NOSIG=
13.02.16 12:31:22 | SARS10 ERZW 130830
METAR UDYZ 130830Z VRB01MPS 6000 NSC 04/M03 Q1025 R09/0///70 NOSIG=
13.02.16 13:01:22 | SARS10 ERZW 130900
METAR UDYZ 130900Z VRB01MPS 6000 NSC 04/M04 Q1025 R09/0///70 NOSIG=
13.02.16 13:31:22 | SARS10 ERZW 130930
METAR UDYZ 130930Z VRB01MPS 6000 NSC 05/M03 Q1025 R09/0///70 NOSIG=
13.02.16 14:01:22 | SARS10 ERZW 131000
METAR UDYZ 131000Z VRB01MPS 6000 NSC 05/M03 Q1024 R09/0///70 NOSIG=
13.02.16 14:31:22 | SARS10 ERZW 131030
METAR UDYZ 131030Z 25002MPS 220V290 6000 NSC 05/M04 Q1024 R09/0///70 NOSIG=
13.02.16 15:01:22 | SARS10 ERZW 131100
METAR UDYZ 131100Z VRB01MPS 6000 NSC 06/M04 Q1023 R09/0///70 NOSIG=
13.02.16 15:31:22 | SARS10 ERZW 131130
METAR UDYZ 131130Z VRB01MPS 9999 NSC 07/M04 Q1023 R09/0///70 NOSIG=
13.02.16 16:01:22 | SARS10 ERZW 131200
METAR UDYZ 131200Z VRB01MPS 9999 NSC 07/M04 Q1023 R09/0///70 NOSIG=
13.02.16 16:31:22 | SARS10 ERZW 131230
METAR UDYZ 131230Z 00000MPS 9999 NSC 07/M05 Q1023 R09/0///70 NOSIG=
13.02.16 17:01:22 | SARS10 ERZW 131300
METAR UDYZ 131300Z VRB01MPS 9999 NSC 07/M05 Q1023 R09/0///70 NOSIG=
13.02.16 17:31:22 | SARS10 ERZW 131330
METAR UDYZ 131330Z VRB01MPS 9999 NSC 07/M05 Q1023 R09/0///70 NOSIG=
13.02.16 18:01:22 | SARS10 ERZW 131400
METAR UDYZ 131400Z VRB01MPS 9999 NSC 06/M04 Q1022 R09/0///70 NOSIG=
13.02.16 18:31:22 | SARS10 ERZW 131430
METAR UDYZ 131430Z 00000MPS 9999 NSC 05/M04 Q1022 R09/0///70 NOSIG=
13.02.16 19:01:22 | SARS10 ERZW 131500
METAR UDYZ 131500Z 00000MPS 9999 NSC 04/M04 Q1023 R09/0///70 NOSIG=
13.02.16 19:31:23 | SARS10 ERZW 131530
METAR UDYZ 131530Z VRB01MPS 9999 NSC 03/M04 Q1023 R09/0///70 NOSIG=
13.02.16 20:01:22 | SARS10 ERZW 131600
METAR UDYZ 131600Z VRB01MPS 9999 NSC 01/M04 Q1023 R09/0///70 NOSIG=
13.02.16 20:31:22 | SARS10 ERZW 131630
METAR UDYZ 131630Z 00000MPS 6000 NSC 01/M03 Q1023 R09/0///70 NOSIG=
13.02.16 21:01:22 | SARS10 ERZW 131700
METAR UDYZ 131700Z 00000MPS 6000 NSC 00/M03 Q1023 R09/0///70 NOSIG=
13.02.16 21:31:22 | SARS10 ERZW 131730
METAR UDYZ 131730Z VRB01MPS 6000 NSC M00/M03 Q1023 R09/0///70 NOSIG=
13.02.16 21:41:29 | SARS10 ERZW 131740
SPECI UDYZ 131740Z VRB01MPS 3500 BR NSC 00/M03 Q1023 R09/0///70 NOSIG=
13.02.16 22:01:23 | SARS10 ERZW 131800
METAR UDYZ 131800Z 04002MPS 3500 BR NSC 00/M03 Q1023 R09/0///70 NOSIG=
13.02.16 22:31:23 | SARS10 ERZW 131830
METAR UDYZ 131830Z 00000MPS 3500 BR NSC M00/M03 Q1023 R09/0///70 NOSIG=
13.02.16 23:01:23 | SARS10 ERZW 131900
METAR UDYZ 131900Z VRB01MPS 3500 BR NSC M01/M04 Q1023 R09/0///70 NOSIG=
13.02.16 23:31:23 | SARS10 ERZW 131930
METAR UDYZ 131930Z VRB01MPS 3500 BR NSC M02/M03 Q1023 R09/0///70 NOSIG=
13.02.16 23:37:49 | SARS10 ERZW 131936
SPECI UDYZ 131936Z VRB01MPS 2300 BR NSC M02/M03 Q1023 R09/0///70 NOSIG=
13.02.19 00:01:16 | SARS10 ERZW 130000
METAR UDYZ 130000Z 00000KT 6000 NSC M03/M05 Q1023 R09/010070 NOSIG=
13.02.19 00:31:15 | SARS10 ERZW 130030
METAR UDYZ 130030Z 00000KT 6000 NSC M04/M05 Q1023 R09/010070 NOSIG=
13.02.19 01:01:16 | SARS10 ERZW 130100
METAR UDYZ 130100Z 00000KT 6000 NSC M04/M06 Q1023 R09/010070 NOSIG=
13.02.19 01:31:16 | SARS10 ERZW 130130
METAR UDYZ 130130Z 00000KT 6000 NSC M04/M05 Q1023 R09/010070 NOSIG=
13.02.19 02:01:16 | SARS10 ERZW 130200
METAR UDYZ 130200Z 00000KT 6000 NSC M04/M05 Q1023 R09/010070 NOSIG=
13.02.19 02:31:16 | SARS10 ERZW 130230
METAR UDYZ 130230Z 03001KT 6000 NSC M04/M05 Q1023 R09/010070 NOSIG=
13.02.19 03:01:16 | SARS10 ERZW 130300
METAR UDYZ 130300Z 00000KT 6000 NSC M05/M06 Q1023 R09/010070 NOSIG=
13.02.19 03:31:16 | SARS10 ERZW 130330
METAR UDYZ 130330Z 00000KT 6000 NSC M05/M06 Q1024 R09/010070 NOSIG=
13.02.19 04:01:16 | SARS10 ERZW 130400
METAR UDYZ 130400Z 00000KT 6000 NSC M05/M07 Q1024 R09/010070 NOSIG=
13.02.19 04:09:58 | SARS10 ERZW 130408
SPECI UDYZ 130408Z 00000KT 3500 BR NSC M06/M07 Q1024 R09/010070 NOSIG=
13.02.19 04:31:16 | SARS10 ERZW 130430
METAR UDYZ 130430Z 00000KT 3500 BR NSC M05/M06 Q1024 R09/010070 NOSIG=
13.02.19 05:01:16 | SARS10 ERZW 130500
METAR UDYZ 130500Z 00000KT 3500 BR NSC M03/M04 Q1024 R09/010070 NOSIG=
13.02.19 05:31:16 | SARS10 ERZW 130530
METAR UDYZ 130530Z 11001KT 3500 BR NSC M02/M04 Q1024 R09/010070 NOSIG=
13.02.19 06:01:16 | SARS10 ERZW 130600
METAR UDYZ 130600Z 09001KT 3500 BR NSC M00/M03 Q1025 R09/010070 NOSIG=
13.02.19 06:31:16 | SARS10 ERZW 130630
METAR UDYZ 130630Z VRB01KT 3500 BR NSC 01/M03 Q1025 R09/010070 NOSIG=
13.02.19 07:01:16 | SARS10 ERZW 130700
METAR UDYZ 130700Z 16001KT 6000 NSC 02/M03 Q1025 R09/010070 NOSIG=
13.02.19 07:31:16 | SARS10 ERZW 130730
METAR UDYZ 130730Z VRB01KT 6000 NSC 03/M02 Q1025 R09/010070 NOSIG=
13.02.19 08:01:16 | SARS10 ERZW 130800
METAR UDYZ 130800Z VRB02KT 6000 NSC 04/M02 Q1025 R09/010070 NOSIG=
13.02.19 08:31:16 | SARS10 ERZW 130830
METAR UDYZ 130830Z VRB01KT 6000 NSC 06/M02 Q1024 R09/010070 NOSIG=
13.02.19 09:01:16 | SARS10 ERZW 130900
METAR UDYZ 130900Z VRB01KT 6000 NSC 06/M02 Q1024 R09/010070 NOSIG=
13.02.19 09:31:16 | SARS10 ERZW 130930
METAR UDYZ 130930Z VRB02KT 6000 NSC 07/M02 Q1024 R09/010070 NOSIG=
13.02.19 10:01:16 | SARS10 ERZW 131000
METAR UDYZ 131000Z VRB02KT 9999 NSC 08/M04 Q1023 R09/010070 NOSIG=
13.02.19 10:31:16 | SARS10 ERZW 131030
METAR UDYZ 131030Z VRB02KT 9999 NSC 08/M04 Q1023 R09/010070 NOSIG=
13.02.19 11:01:16 | SARS10 ERZW 131100
METAR UDYZ 131100Z VRB01KT 9999 NSC 09/M03 Q1023 R09/010070 NOSIG=
13.02.19 11:31:16 | SARS10 ERZW 131130
METAR UDYZ 131130Z VRB02KT 9999 NSC 09/M04 Q1023 R09/010070 NOSIG=
13.02.19 12:01:16 | SARS10 ERZW 131200
METAR UDYZ 131200Z VRB01KT 9999 NSC 09/M05 Q1022 R09/010070 NOSIG=
13.02.19 12:31:16 | SARS10 ERZW 131230
METAR UDYZ 131230Z VRB01KT 9999 NSC 10/M05 Q1022 R09/010070 NOSIG=
13.02.19 13:01:16 | SARS10 ERZW 131300
METAR UDYZ 131300Z VRB02KT 9999 NSC 10/M06 Q1022 R09/010070 NOSIG=
13.02.19 13:31:16 | SARS10 ERZW 131330
METAR UDYZ 131330Z VRB01KT 9999 NSC 09/M07 Q1022 R09/010070 NOSIG=
13.02.19 14:01:16 | SARS10 ERZW 131400
METAR UDYZ 131400Z 25001KT 9999 NSC 09/M06 Q1022 R09/010070 NOSIG=
13.02.19 14:31:16 | SARS10 ERZW 131430
METAR UDYZ 131430Z 24001KT 9999 NSC 08/M06 Q1022 R09/010070 NOSIG=
13.02.19 15:01:16 | SARS10 ERZW 131500
METAR UDYZ 131500Z 00000KT 9999 NSC 05/M05 Q1022 R09/010070 NOSIG=
13.02.19 15:31:16 | SARS10 ERZW 131530
METAR UDYZ 131530Z 00000KT 9999 NSC 04/M05 Q1022 R09/010070 NOSIG=
13.02.19 16:01:16 | SARS10 ERZW 131600
METAR UDYZ 131600Z 34002KT 9999 NSC 03/M04 Q1022 R09/010070 NOSIG=
13.02.19 16:31:16 | SARS10 ERZW 131630
METAR UDYZ 131630Z 35003KT 6000 NSC 01/M04 Q1022 R09/010070 NOSIG=
13.02.19 17:01:16 | SARS10 ERZW 131700
METAR UDYZ 131700Z 36002KT 6000 NSC 01/M03 Q1022 R09/010070 NOSIG=
13.02.19 17:31:16 | SARS10 ERZW 131730
METAR UDYZ 131730Z 05003KT 6000 NSC 01/M03 Q1022 R09/010070 NOSIG=
13.02.19 18:01:16 | SARS10 ERZW 131800
METAR UDYZ 131800Z 02002KT 6000 NSC 01/M03 Q1022 R09/010070 NOSIG=
13.02.19 18:31:16 | SARS10 ERZW 131830
METAR UDYZ 131830Z 23001KT 6000 NSC 00/M03 Q1023 R09/010070 NOSIG=
13.02.19 19:01:16 | SARS10 ERZW 131900
METAR UDYZ 131900Z 00000KT 6000 NSC M01/M04 Q1022 R09/010070 NOSIG=
13.02.19 19:31:16 | SARS10 ERZW 131930
METAR UDYZ 131930Z 05004KT 6000 NSC 01/M03 Q1022 R09/010070 NOSIG=
13.02.19 20:01:16 | SARS10 ERZW 132000
METAR UDYZ 132000Z 07003KT 6000 NSC 01/M03 Q1022 R09/010070 NOSIG=
13.02.19 20:31:16 | SARS10 ERZW 132030
METAR UDYZ 132030Z VRB01KT 6000 NSC M01/M04 Q1022 R09/010070 NOSIG=
13.02.19 21:01:16 | SARS10 ERZW 132100
METAR UDYZ 132100Z 00000KT 3500 BR NSC M01/M03 Q1022 R09/010070 NOSIG=
13.02.19 21:31:16 | SARS10 ERZW 132130
METAR UDYZ 132130Z 11001KT 3500 BR NSC M02/M04 Q1022 R09/010070 NOSIG=
13.02.19 22:01:16 | SARS10 ERZW 132200
METAR UDYZ 132200Z 01001KT 3500 BR NSC M03/M05 Q1022 R09/010070 NOSIG=
13.02.19 22:31:16 | SARS10 ERZW 132230
METAR UDYZ 132230Z VRB01KT 3500 BR NSC M02/M04 Q1022 R09/010070 NOSIG=
13.02.19 23:01:17 | SARS10 ERZW 132300
METAR UDYZ 132300Z 03001KT 3500 BR NSC M02/M04 Q1022 R09/010070 NOSIG=
13.02.19 23:31:16 | SARS10 ERZW 132330
METAR UDYZ 132330Z 00000KT 3500 BR NSC M03/M05 Q1022 R09/010070 NOSIG=
13.02.20 00:01:41 | SARS10 ERZW 130000
METAR UDYZ 130000Z 25010KT 9999 FEW046 M01/M09 Q1020 R09/010070 NOSIG=
13.02.20 00:31:54 | SARS10 ERZW 130030
METAR UDYZ 130030Z 21004KT 9999 FEW046 M01/M11 Q1020 R09/010070 NOSIG=
13.02.20 01:01:41 | SARS10 ERZW 130100
METAR UDYZ 130100Z 26010KT 9999 FEW046 M01/M10 Q1020 R09/010070 NOSIG=
13.02.20 01:31:41 | SARS10 ERZW 130130
METAR UDYZ 130130Z 26004KT 9999 FEW046 M02/M10 Q1020 R09/010070 NOSIG=
13.02.20 02:01:41 | SARS10 ERZW 130200
METAR UDYZ 130200Z 30003KT 9999 FEW046 M02/M08 Q1020 R09/010070 NOSIG=
13.02.20 02:31:41 | SARS10 ERZW 130230
METAR UDYZ 130230Z 04002KT 9999 FEW046 M02/M08 Q1020 R09/010070 NOSIG=
13.02.20 03:01:41 | SARS10 ERZW 130300
METAR UDYZ 130300Z 03003KT 9999 FEW046 M02/M08 Q1020 R09/010070 NOSIG=
13.02.20 03:32:42 | SARS10 ERZW 130330
METAR UDYZ 130330Z 01002KT 9999 FEW046 M02/M08 Q1021 R09/010070 NOSIG=
13.02.20 04:01:54 | SARS10 ERZW 130400
METAR UDYZ 130400Z 02002KT 9999 FEW046 M03/M08 Q1021 R09/010070 NOSIG=
13.02.20 04:31:55 | SARS10 ERZW 130430
METAR UDYZ 130430Z 04002KT 9999 FEW046 M03/M08 Q1021 R09/010070 NOSIG=
13.02.20 05:01:54 | SARS10 ERZW 130500
METAR UDYZ 130500Z 05002KT 9999 NSC M02/M08 Q1021 R09/010070 NOSIG=
13.02.20 05:31:54 | SARS10 ERZW 130530
METAR UDYZ 130530Z 04004KT 9999 NSC M01/M08 Q1021 R09/010070 NOSIG=
13.02.20 06:01:54 | SARS10 ERZW 130600
METAR UDYZ 130600Z 05004KT 9999 NSC M01/M08 Q1021 R09/010070 NOSIG=
13.02.20 06:31:54 | SARS10 ERZW 130630
METAR UDYZ 130630Z 04004KT 9999 NSC M00/M08 Q1021 R09/010070 NOSIG=
13.02.20 07:01:55 | SARS10 ERZW 130700
METAR UDYZ 130700Z VRB01KT 9999 NSC 00/M08 Q1021 R09/010070 NOSIG=
13.02.20 07:31:55 | SARS10 ERZW 130730
METAR UDYZ 130730Z 11003KT 9999 FEW046 00/M08 Q1021 R09/010070 NOSIG=
